QZS-4 (MICHIBIKI-4)     
1 42965U 17062A   23198.32097995 -.00000357  00000+0  00000+0 0  9993
2 42965  40.6541 357.0662 0746425 268.4956 282.1138  1.00295526 21115
SES-11 (ECHOSTAR 105)   
1 42967U 17063A   23200.59447639 -.00000088  00000+0  00000+0 0  9994
2 42967   0.0125  62.7766 0001935  41.8235 301.5680  1.00272019 21146
KOREASAT 5A             
1 42984U 17067A   23200.86295236 -.00000356  00000+0  00000+0 0  9999
2 42984   0.0328  82.3573 0001189   2.3173 276.5180  1.00270467 20979
ALCOMSAT 1              
1 43039U 17078A   23200.75382162 -.00000185  00000+0  00000+0 0  9996
2 43039   0.0446 198.6267 0001669 287.2059  57.9930  1.00270659 20611
SBIRS GEO-3 (USA 282)   
1 43162U 18009A   23199.85461154 -.00000288  00000+0  00000+0 0  9999
2 43162   2.8330 325.4097 0001626 156.6675 260.9674  1.00271898 20164
AL YAH 3                
1 43174U 18012A   23200.28451997 -.00000155  00000+0  00000+0 0  9993
2 43174   0.1322  94.3935 0001778  21.7444 262.9804  1.00270397 20177
SES-14                  
1 43175U 18012B   23200.74928905 -.00000277  00000+0  00000+0 0  9998
2 43175   0.0140 346.5179 0000848 127.1785  45.8119  1.00270926 20381
GOES 17                 
1 43226U 18022A   23199.94948722 -.00000090  00000+0  00000+0 0  9997
2 43226   0.0088 284.7940 0002008 196.1588  52.6150  1.00272343 19761
HISPASAT 30W-6          
1 43228U 18023A   23200.75277565 -.00000215  00000+0  00000+0 0  9991
2 43228   0.0404  50.4835 0004725  44.3152  83.4755  1.00271364 19838
SUPERBIRD-B3            
1 43271U 18033A   23200.71930433 -.00000091  00000+0  00000+0 0  9998
2 43271   0.0481 254.0083 0000427 258.8522 205.3239  1.00270894 19385
HYLAS 4                 
1 43272U 18033B   23200.33799661 -.00000232  00000+0  00000+0 0  9990
2 43272   0.0803 264.2731 0001096 223.8025 256.9712  1.00272553 19405
IRNSS-1I                
1 43286U 18035A   23199.80952201  .00000070  00000+0  00000+0 0  9996
2 43286  29.1427  90.9560 0018098 180.8586  11.0584  1.00278871 19396
USA 283                 
1 43339U 18036A   23200.42701978 -.00000317  00000+0  00000+0 0  9995
2 43339   0.0213  74.6436 0000700 125.2397  24.8910  1.00267994 14621
COSMOS 2526             
1 43432U 18037A   23199.68942132 -.00000344  00000+0  00000+0 0  9994
2 43432   0.0247  92.6484 0000962  21.1659 198.6373  1.00275403 19295
APSTAR 6C               
1 43450U 18041A   23200.76785639 -.00000316  00000+0  00000+0 0  9997
2 43450   0.0713 260.1954 0001839 260.5401 186.9555  1.00269680 19174
BANGABANDHUSAT-1        
1 43463U 18044A   23200.86904157 -.00000361  00000+0  00000+0 0  9993
2 43463   0.0190 103.5778 0001367  18.1737 247.5680  1.00269641 19075
SES-12                  
1 43488U 18049A   23200.84557444 -.00000267  00000+0  00000+0 0  9991
2 43488   0.0136  40.1795 0001313 207.4480  89.1260  1.00270484 18751
FENGYUN 2H              
1 43491U 18050A   23200.77447413 -.00000126  00000+0  00000+0 0  9997
2 43491   2.1587  90.6481 0002918  79.9875 124.4190  1.00275856 18845
BEIDOU-2 IGSO-7         
1 43539U 18057A   23200.42330539 -.00000109  00000+0  00000+0 0  9990
2 43539  55.1221 172.2692 0065127 232.2298 155.2754  1.00298318 18493
TELSTAR 19V             
1 43562U 18059A   23200.74615111 -.00000278  00000+0  00000+0 0  9992
2 43562   0.0291 150.4332 0003042 344.1555   8.2743  1.00270161 18504
TELKOM 4 (MERAH PUTIH)  
1 43587U 18064A   23200.00883028 -.00000343  00000+0  00000+0 0  9991
2 43587   0.0158  46.4463 0001276 101.5950 259.6757  1.00271331 18195
TELSTAR 18V (APSTAR 5C) 
1 43611U 18069A   23200.76785639 -.00000292  00000+0  00000+0 0  9999
2 43611   0.0182  65.1703 0001919  52.5041 234.0398  1.00271157 17952
AZERSPACE 2 (IS-38)     
1 43632U 18074A   23200.29355194  .00000137  00000+0  00000+0 0  9992
2 43632   0.0181  53.7333 0001248  73.0727 320.8158  1.00272375 17771
HORIZONS-3E             
1 43633U 18074B   23200.23729903 -.00000030  00000+0  00000+0 0  9993
2 43633   0.0371 174.9808 0001188 107.2692 268.9347  1.00269666 17658
AEHF-4 (USA 288)        
1 43651U 18079A   23200.18770190 -.00000271  00000+0  00000+0 0  9993
2 43651   1.8725 326.5224 0003663 156.1329 173.9324  1.00265823 17625
BEIDOU-3 G1             
1 43683U 18085A   23200.74563378 -.00000277  00000+0  00000+0 0  9991
2 43683   1.4162 127.7185 0003265 335.2155 242.8128  1.00273945 17388
GSAT-29                 
1 43698U 18089A   23199.47959564  .00000085  00000+0  00000+0 0  9990
2 43698   0.0868  98.2114 0002121   5.2066  60.3087  1.00273078 17149
ES'HAIL 2               
1 43700U 18090A   23200.31021632  .00000145  00000+0  00000+0 0  9995
2 43700   0.0180  51.7555 0001905 110.8925 271.6466  1.00272432 17252
GEO-KOMPSAT-2A          
1 43823U 18100A   23200.69910444 -.00000342  00000+0  00000+0 0  9992
2 43823   0.0294 176.6329 0001867 288.2992 212.2130  1.00269439 16993
GSAT-11                 
1 43824U 18100B   23200.01854956 -.00000077  00000+0  00000+0 0  9999
2 43824   0.0598 260.6690 0006908 199.6271 276.9267  1.00272658 16964
GSAT-7A                 
1 43864U 18105A   23200.77118983  .00000027  00000+0  00000+0 0  9998
2 43864   0.0697 102.1858 0002020   7.3746 168.1478  1.00274631 16786
COSMOS 2533             
1 43867U 18107A   23200.14424696 -.00000039  00000+0  00000+0 0  9999
2 43867   0.0313 113.4850 0000894   5.8371 299.2598  1.00277598 16756
TJS-3                   
1 43874U 18110A   23201.75316104  .00000006  00000+0  00000+0 0  9996
2 43874   0.1126  94.8590 0003306  65.1910 222.4516  1.00268468 16832
CHINASAT 2D (ZX 2D)     
1 43920U 19001A   23200.41160542 -.00000336  00000+0  00000+0 0  9990
2 43920   0.0136 271.6328 0000579 315.4404 348.0604  1.00269703 16685
HELLAS-SAT 4 & SGS-1    
1 44034U 19007A   23200.29355194  .00000153  00000+0  00000+0 0  9994
2 44034   0.0673 123.4282 0005330  21.0892 296.9837  1.00273922 16689
GSAT-31                 
1 44035U 19007B   23200.29355194  .00000126  00000+0  00000+0 0  9995
2 44035   0.0596  96.2827 0001108  76.9241 277.1606  1.00271241 16308
NUSANTARA SATU          
1 44048U 19009A   23200.40049365 -.00000234  00000+0  00000+0 0  9995
2 44048   0.0262 118.5942 0004609  12.0189  96.4839  1.00270590 16103
CHINASAT 6C (ZX 6C)     
1 44067U 19012A   23199.92822472 -.00000334  00000+0  00000+0 0  9993
2 44067   0.0810 113.7221 0005442  20.5101 266.7861  1.00275306 16066
WGS 10 (USA 291)        
1 44071U 19014A   23200.28799477  .00000048  00000+0  00000+0 0  9991
2 44071   0.0170  50.9429 0000374 246.2730 163.5630  1.00270564 15941
TIANLIAN 2-01           
1 44076U 19017A   23200.77473561 -.00000134  00000+0  00000+0 0  9993
2 44076   0.2243 265.1452 0034442 252.7439 138.3130  1.00270516 15948
ARABSAT-6A              
1 44186U 19021A   23200.76480439  .00000155  00000+0  00000+0 0  9993
2 44186   0.0466 345.0146 0005014 203.7150  54.3962  1.00272634 15484
BEIDOU-3 IGSO-1         
1 44204U 19023A   23199.53383578 -.00000205  00000+0  00000+0 0  9991
2 44204  57.1454  48.7458 0022287 194.7910   2.1041  1.00297496 15686
BEIDOU-2 G8             
1 44231U 19027A   23199.71239475 -.00000248  00000+0  00000+0 0  9998
2 44231   1.8375  81.2685 0005027 123.6481 132.1926  1.00277050 15405
YAMAL 601               
1 44307U 19031A   23199.47837532  .00000120  00000+0  00000+0 0  9996
2 44307   0.0163  99.1026 0002008  16.9748  41.1427  1.00271925 15240
AT&T T-16               
1 44333U 19034A   23200.59526088 -.00000114  00000+0  00000+0 0  9999
2 44333   0.0162   8.8865 0000321 339.1663  62.4797  1.00269931 14966
EUTELSAT 7C             
1 44334U 19034B   23200.31577073  .00000049  00000+0  00000+0 0  9996
2 44334   0.0741 227.4510 0003050 236.6794 313.3952  1.00272550 15462
BEIDOU-3 IGSO-2         
1 44337U 19035A   23200.31438139 -.00000121  00000+0  00000+0 0  9991
2 44337  55.1540 168.2056 0033253 198.8714 161.3159  1.00289757 15028
COSMOS 2539             
1 44457U 19048A   23200.31577073  .00000081  00000+0  00000+0 0  9993
2 44457   0.0290 108.7589 0000464 120.3511 193.3895  1.00268470 14564
EDRS-C                  
1 44475U 19049A   23199.09217054  .00000154  00000+0  00000+0 0  9997
2 44475   0.0822 253.3724 0000640 196.5856 270.0330  1.00270443 14511
INTELSAT 39 (IS-39)     
1 44476U 19049B   23200.77101550  .00000035  00000+0  00000+0 0  9997
2 44476   0.0218  61.7757 0001105 287.9133 287.1160  1.00269683 14477
AMOS-17                 
1 44479U 19050A   23200.76210229  .00000111  00000+0  00000+0 0  9990
2 44479   0.0217  59.0462 0001451  71.3512  98.2341  1.00269849 14513
AEHF-5 (USA 292)        
1 44481U 19051A   23200.12465351  .00000088  00000+0  00000+0 0  9995
2 44481   3.4400 304.7938 0043207 359.6561  91.6291  1.00275731 14581
EUTELSAT 5 WEST B       
1 44624U 19067A   23200.61417566 -.00000040  00000+0  00000+0 0  9999
2 44624   0.0848 323.3632 0004297 163.9132  25.9689  1.00273325 13771
TJS-4                   
1 44637U 19070A   23200.88766990 -.00000168  00000+0  00000+0 0  9995
2 44637   0.0599  96.5147 0002244 273.2218 330.7364  1.00271228 13887
BEIDOU-3 IGSO-3         
1 44709U 19073A   23200.65999308 -.00000177  00000+0  00000+0 0  9994
2 44709  56.6111 292.2438 0034634 187.3261 172.7017  1.00296406 13775
TIBA-1                  
1 44800U 19080A   23200.76576319  .00000157  00000+0  00000+0 0  9996
2 44800   0.0513  19.0285 0001924 112.8937 116.5077  1.00271949 13418
INMARSAT GX5            
1 44801U 19080B   23200.76088198  .00000077  00000+0  00000+0 0  9991
2 44801   0.0368  26.6644 0002245 106.3111  89.2310  1.00273761 13420
JCSAT-18 (KACIFIC 1)    
1 44868U 19091A   23200.39979921 -.00000200  00000+0  00000+0 0  9997
2 44868   0.0044 278.5647 0000606 308.7562   3.5076  1.00270321 13429
ELEKTRO-L 3             
1 44903U 19095A   23200.12875025 -.00000096  00000+0  00000+0 0  9995
2 44903   0.0663 162.8100 0001290 335.3611 280.8209  1.00272958 13028
